{
  "type": "FeatureCollection",
  "features": [
    {
      "type": "Feature",
      "properties": {
        "norad_id": 28054,
        "name": "DMSP 5D-3 F16 (USA 172)",
        "group": "weather",
        "lat": 71.21488186487436,
        "lon": -156.95710049095098,
        "alt_km": 839.7507095278634,
        "timestamp": "2025-12-03T20:47:57.858773+00:00",
        "meta_object_name": "DMSP 5D-3 F16 (USA 172)",
        "meta_object_id": "2003-048A",
        "meta_epoch": "2025-12-03T12:32:12.711840",
        "meta_mean_motion": 14.14418884,
        "meta_eccentricity": 0.0006884,
        "meta_inclination": 99.0053,
        "meta_ra_of_asc_node": 354.9066,
        "meta_arg_of_pericenter": 348.9235,
        "meta_mean_anomaly": 165.4985,
        "meta_ephemeris_type": 0,
        "meta_classification_type": "U",
        "meta_norad_cat_id": 28054,
        "meta_element_set_no": 999,
        "meta_rev_at_epoch": 14182,
        "meta_bstar": 0.00013873,
        "meta_mean_motion_dot": 2.2e-06,
        "meta_mean_motion_ddot": 0,
        "tle_line1": "1 28054U 03048A   25337.52236935  .00000220  00000+0  13873-3 0  9997",
        "tle_line2": "2 28054  99.0053 354.9066 0006884 348.9235 165.4985 14.14418884141827"
      },
      "geometry": {
        "type": "Point",
        "coordinates": [
          -156.95710049095098,
          71.21488186487436
        ]
      }
    },
    {
      "type": "Feature",
      "properties": {
        "norad_id": 28912,
        "name": "METEOSAT-9 (MSG-2)",
        "group": "weather",
        "lat": 2.2421658150406008,
        "lon": 70.34786779066576,
        "alt_km": 35802.5920339916,
        "timestamp": "2025-12-03T20:47:57.858826+00:00",
        "meta_object_name": "METEOSAT-9 (MSG-2)",
        "meta_object_id": "2005-049B",
        "meta_epoch": "2025-12-02T20:50:55.807872",
        "meta_mean_motion": 1.00271253,
        "meta_eccentricity": 0.00040042,
        "meta_inclination": 8.9157,
        "meta_ra_of_asc_node": 56.0648,
        "meta_arg_of_pericenter": 185.08,
        "meta_mean_anomaly": 189.154,
        "meta_ephemeris_type": 0,
        "meta_classification_type": "U",
        "meta_norad_cat_id": 28912,
        "meta_element_set_no": 999,
        "meta_rev_at_epoch": 503,
        "meta_bstar": 0,
        "meta_mean_motion_dot": 1.39e-06,
        "meta_mean_motion_ddot": 0,
        "tle_line1": "1 28912U 05049B   25336.86870148  .00000139  00000+0  00000+0 0  9992",
        "tle_line2": "2 28912   8.9157  56.0648 0004004 185.0800 189.1540  1.00271253  5030"
      },
      "geometry": {
        "type": "Point",
        "coordinates": [
          70.34786779066576,
          2.2421658150406008
        ]
      }
    },
    {
      "type": "Feature",
      "properties": {
        "norad_id": 29522,
        "name": "DMSP 5D-3 F17 (USA 191)",
        "group": "weather",
        "lat": 30.817010961909986,
        "lon": -21.82438429144061,
        "alt_km": 845.8416100379873,
        "timestamp": "2025-12-03T20:47:57.858844+00:00",
        "meta_object_name": "DMSP 5D-3 F17 (USA 191)",
        "meta_object_id": "2006-050A",
        "meta_epoch": "2025-12-03T12:09:58.828032",
        "meta_mean_motion": 14.14913077,
        "meta_eccentricity": 0.0009159,
        "meta_inclination": 98.7394,
        "meta_ra_of_asc_node": 343.0882,
        "meta_arg_of_pericenter": 253.7379,
        "meta_mean_anomaly": 106.2787,
        "meta_ephemeris_type": 0,
        "meta_classification_type": "U",
        "meta_norad_cat_id": 29522,
        "meta_element_set_no": 999,
        "meta_rev_at_epoch": 98474,
        "meta_bstar": 0.00016179,
        "meta_mean_motion_dot": 2.69e-06,
        "meta_mean_motion_ddot": 0,
        "tle_line1": "1 29522U 06050A   25337.50693088  .00000269  00000+0  16179-3 0  9993",
        "tle_line2": "2 29522  98.7394 343.0882 0009159 253.7379 106.2787 14.14913077984740"
      },
      "geometry": {
        "type": "Point",
        "coordinates": [
          -21.82438429144061,
          30.817010961909986
        ]
      }
    },
    {
      "type": "Feature",
      "properties": {
        "norad_id": 32958,
        "name": "FENGYUN 3A",
        "group": "weather",
        "lat": -40.845838630862545,
        "lon": -74.8404672782555,
        "alt_km": 827.8332766303356,
        "timestamp": "2025-12-03T20:47:57.858858+00:00",
        "meta_object_name": "FENGYUN 3A",
        "meta_object_id": "2008-026A",
        "meta_epoch": "2025-12-03T10:50:37.603968",
        "meta_mean_motion": 14.19509646,
        "meta_eccentricity": 0.0008349,
        "meta_inclination": 98.6682,
        "meta_ra_of_asc_node": 277.1747,
        "meta_arg_of_pericenter": 339.0823,
        "meta_mean_anomaly": 21.001,
        "meta_ephemeris_type": 0,
        "meta_classification_type": "U",
        "meta_norad_cat_id": 32958,
        "meta_element_set_no": 999,
        "meta_rev_at_epoch": 90763,
        "meta_bstar": 0.00010748,
        "meta_mean_motion_dot": 1.83e-06,
        "meta_mean_motion_ddot": 0,
        "tle_line1": "1 32958U 08026A   25337.45182412  .00000183  00000+0  10748-3 0  9994",
        "tle_line2": "2 32958  98.6682 277.1747 0008349 339.0823  21.0010 14.19509646907639"
      },
      "geometry": {
        "type": "Point",
        "coordinates": [
          -74.8404672782555,
          -40.845838630862545
        ]
      }
    },
    {
      "type": "Feature",
      "properties": {
        "norad_id": 35491,
        "name": "GOES 14",
        "group": "weather",
        "lat": -0.24512154935612135,
        "lon": -83.38769560008829,
        "alt_km": 35772.400335796774,
        "timestamp": "2025-12-03T20:47:57.858874+00:00",
        "meta_object_name": "GOES 14",
        "meta_object_id": "2009-033A",
        "meta_epoch": "2025-12-03T09:48:58.361184",
        "meta_mean_motion": 1.00272644,
        "meta_eccentricity": 0.000418,
        "meta_inclination": 1.173,
        "meta_ra_of_asc_node": 85.5185,
        "meta_arg_of_pericenter": 150.4444,
        "meta_mean_anomaly": 235.4417,
        "meta_ephemeris_type": 0,
        "meta_classification_type": "U",
        "meta_norad_cat_id": 35491,
        "meta_element_set_no": 999,
        "meta_rev_at_epoch": 463,
        "meta_bstar": 0,
        "meta_mean_motion_dot": -5e-07,
        "meta_mean_motion_ddot": 0,
        "tle_line1": "1 35491U 09033A   25337.40900881 -.00000050  00000+0  00000+0 0  9991",
        "tle_line2": "2 35491   1.1730  85.5185 0004180 150.4444 235.4417  1.00272644  4638"
      },
      "geometry": {
        "type": "Point",
        "coordinates": [
          -83.38769560008829,
          -0.24512154935612135
        ]
      }
    },
    {
      "type": "Feature",
      "properties": {
        "norad_id": 35951,
        "name": "DMSP 5D-3 F18 (USA 210)",
        "group": "weather",
        "lat": -78.9395893568381,
        "lon": 81.1818884429175,
        "alt_km": 859.1833789837174,
        "timestamp": "2025-12-03T20:47:57.858887+00:00",
        "meta_object_name": "DMSP 5D-3 F18 (USA 210)",
        "meta_object_id": "2009-057A",
        "meta_epoch": "2025-12-03T11:04:19.663680",
        "meta_mean_motion": 14.14760563,
        "meta_eccentricity": 0.0012115,
        "meta_inclination": 98.8824,
        "meta_ra_of_asc_node": 313.909,
        "meta_arg_of_pericenter": 86.8754,
        "meta_mean_anomaly": 273.3805,
        "meta_ephemeris_type": 0,
        "meta_classification_type": "U",
        "meta_norad_cat_id": 35951,
        "meta_element_set_no": 999,
        "meta_rev_at_epoch": 83191,
        "meta_bstar": 0.00021942,
        "meta_mean_motion_dot": 3.79e-06,
        "meta_mean_motion_ddot": 0,
        "tle_line1": "1 35951U 09057A   25337.46133870  .00000379  00000+0  21942-3 0  9995",
        "tle_line2": "2 35951  98.8824 313.9090 0012115  86.8754 273.3805 14.14760563831914"
      },
      "geometry": {
        "type": "Point",
        "coordinates": [
          81.1818884429175,
          -78.9395893568381
        ]
      }
    },
    {
      "type": "Feature",
      "properties": {
        "norad_id": 36411,
        "name": "EWS-G2 (GOES 15)",
        "group": "weather",
        "lat": 0.026789046430212102,
        "lon": 86.39954109745071,
        "alt_km": 35812.05305664938,
        "timestamp": "2025-12-03T20:47:57.858900+00:00",
        "meta_object_name": "EWS-G2 (GOES 15)",
        "meta_object_id": "2010-008A",
        "meta_epoch": "2025-12-03T10:37:23.721888",
        "meta_mean_motion": 1.00267725,
        "meta_eccentricity": 0.0005965,
        "meta_inclination": 0.789,
        "meta_ra_of_asc_node": 86.0549,
        "meta_arg_of_pericenter": 169.9659,
        "meta_mean_anomaly": 37.3602,
        "meta_ephemeris_type": 0,
        "meta_classification_type": "U",
        "meta_norad_cat_id": 36411,
        "meta_element_set_no": 999,
        "meta_rev_at_epoch": 5767,
        "meta_bstar": 0,
        "meta_mean_motion_dot": 5.6e-07,
        "meta_mean_motion_ddot": 0,
        "tle_line1": "1 36411U 10008A   25337.44263567  .00000056  00000+0  00000+0 0  9990",
        "tle_line2": "2 36411   0.7890  86.0549 0005965 169.9659  37.3602  1.00267725 57679"
      },
      "geometry": {
        "type": "Point",
        "coordinates": [
          86.39954109745071,
          0.026789046430212102
        ]
      }
    }
  ]
}